ONEWEB-0171             
1 48070U 21025AE  25277.51861880 -.00000245  00000+0 -70613-3 0  9991
2 48070  87.9044  11.0474 0001831 104.5509 255.5823 13.13468353220053
ONEWEB-0172             
1 48071U 21025AF  25277.49831843  .00000174  00000+0  44093-3 0  9997
2 48071  87.9059  11.0221 0001867 106.2485 253.8849 13.13469747220946
ONEWEB-0174             
1 48072U 21025AG  25276.33702881  .00000315  00000+0  82849-3 0  9997
2 48072  87.9050  11.2631 0001974  98.5527 261.5826 13.13469490220119
ONEWEB-0175             
1 48073U 21025AH  25276.29130879 -.00000250  00000+0 -72010-3 0  9994
2 48073  87.9050  11.2371 0001710 111.2104 248.9208 13.13468566219768
ONEWEB-0177             
1 48074U 21025AJ  25276.53170148 -.00000227  00000+0 -65584-3 0  9997
2 48074  87.9055  11.2073 0002012 101.0771 259.0585 13.13469427219988
ONEWEB-0178             
1 48075U 21025AK  25277.54076757  .00000133  00000+0  32991-3 0  9991
2 48075  87.9050  11.0532 0001971 109.1593 250.9750 13.13470760220164
ONEWEB-0108             
1 48076U 21025AL  25277.50000228  .00000118  00000+0  28939-3 0  9998
2 48076  87.9053  11.0068 0001739  94.0714 266.0614 13.13467985220084
ONEWEB-0169             
1 48077U 21025AM  25276.31332462  .00000120  00000+0  29424-3 0  9998
2 48077  87.9046  11.2650 0001806  94.4326 265.7009 13.13470733218585
ONEWEB-0176             
1 48210U 21031A   25276.58593917 -.00000178  00000+0 -51505-3 0  9997
2 48210  87.9060 340.8062 0001901 103.5174 256.6167 13.14502657214602
ONEWEB-0184             
1 48211U 21031B   25276.48286403  .00000323  00000+0  83733-3 0  9994
2 48211  87.9073 340.8006 0001956 125.7720 234.3592 13.14503892214560
ONEWEB-0179             
1 48212U 21031C   25276.60574341 -.00000240  00000+0 -68117-3 0  9999
2 48212  87.9063 340.7902 0002027  98.1038 262.0322 13.14501846214622
ONEWEB-0180             
1 48213U 21031D   25276.40990912  .00000286  00000+0  73569-3 0  9999
2 48213  87.9074 340.8209 0002170 103.8576 256.2795 13.14502452214483
ONEWEB-0218             
1 48214U 21031E   25276.58434228 -.00000109  00000+0 -32953-3 0  9990
2 48214  87.9071 340.7867 0002218 124.5475 235.5864 13.14500725214669
ONEWEB-0209             
1 48215U 21031F   25276.57324622  .00000019  00000+0  15972-4 0  9997
2 48215  87.9068 340.8314 0002143  98.8248 261.3124 13.14500824214668
ONEWEB-0198             
1 48216U 21031G   25277.47093713  .00000346  00000+0  89962-3 0  9994
2 48216  87.9057 340.6521 0002299 108.2937 251.8443 13.14502812214890
ONEWEB-0189             
1 48217U 21031H   25276.18948968  .00000161  00000+0  39882-3 0  9994
2 48217  87.9061 340.8796 0002167 108.0641 252.0725 13.14502687214465
