[{"OBJECT_NAME":"ONEWEB-0171","OBJECT_ID":"2021-025AE","EPOCH":"2025-10-04T12:26:48.664320","MEAN_MOTION":13.13468353,"ECCENTRICITY":0.0001831,"INCLINATION":87.9044,"RA_OF_ASC_NODE":11.0474,"ARG_OF_PERICENTER":104.5509,"MEAN_ANOMALY":255.5823,"EPHEMERIS_TYPE":0,"CLASSIFICATION_TYPE":"U","NORAD_CAT_ID":48070,"ELEMENT_SET_NO":999,"REV_AT_EPOCH":22005,"BSTAR":-0.00070613,"MEAN_MOTION_DOT":-2.45e-6,"MEAN_MOTION_DDOT":0},{"OBJECT_NAME":"ONEWEB-0172","OBJECT_ID":"2021-025AF","EPOCH":"2025-10-04T11:57:34.712352","MEAN_MOTION":13.13469747,"ECCENTRICITY":0.0001867,"INCLINATION":87.9059,"RA_OF_ASC_NODE":11.0221,"ARG_OF_PERICENTER":106.2485,"MEAN_ANOMALY":253.8849,"EPHEMERIS_TYPE":0,"CLASSIFICATION_TYPE":"U","NORAD_CAT_ID":48071,"ELEMENT_SET_NO":999,"REV_AT_EPOCH":22094,"BSTAR":0.00044093,"MEAN_MOTION_DOT":1.74e-6,"MEAN_MOTION_DDOT":0},{"OBJECT_NAME":"ONEWEB-0174","OBJECT_ID":"2021-025AG","EPOCH":"2025-10-03T08:05:19.289184","MEAN_MOTION":13.1346949,"ECCENTRICITY":0.00019743,"INCLINATION":87.905,"RA_OF_ASC_NODE":11.2631,"ARG_OF_PERICENTER":98.5527,"MEAN_ANOMALY":261.5826,"EPHEMERIS_TYPE":0,"CLASSIFICATION_TYPE":"U","NORAD_CAT_ID":48072,"ELEMENT_SET_NO":999,"REV_AT_EPOCH":22011,"BSTAR":0.00082849021,"MEAN_MOTION_DOT":3.15e-6,"MEAN_MOTION_DDOT":0},{"OBJECT_NAME":"ONEWEB-0175","OBJECT_ID":"2021-025AH","EPOCH":"2025-10-03T06:59:29.079456","MEAN_MOTION":13.13468566,"ECCENTRICITY":0.00017105,"INCLINATION":87.905,"RA_OF_ASC_NODE":11.2371,"ARG_OF_PERICENTER":111.2104,"MEAN_ANOMALY":248.9208,"EPHEMERIS_TYPE":0,"CLASSIFICATION_TYPE":"U","NORAD_CAT_ID":48073,"ELEMENT_SET_NO":999,"REV_AT_EPOCH":21976,"BSTAR":-0.00072009887,"MEAN_MOTION_DOT":-2.5e-6,"MEAN_MOTION_DDOT":0},{"OBJECT_NAME":"ONEWEB-0177","OBJECT_ID":"2021-025AJ","EPOCH":"2025-10-03T12:45:39.007872","MEAN_MOTION":13.13469427,"ECCENTRICITY":0.00020129,"INCLINATION":87.9055,"RA_OF_ASC_NODE":11.2073,"ARG_OF_PERICENTER":101.0771,"MEAN_ANOMALY":259.0585,"EPHEMERIS_TYPE":0,"CLASSIFICATION_TYPE":"U","NORAD_CAT_ID":48074,"ELEMENT_SET_NO":999,"REV_AT_EPOCH":21998,"BSTAR":-0.00065584269,"MEAN_MOTION_DOT":-2.27e-6,"MEAN_MOTION_DDOT":0},{"OBJECT_NAME":"ONEWEB-0178","OBJECT_ID":"2021-025AK","EPOCH":"2025-10-04T12:58:42.318048","MEAN_MOTION":13.1347076,"ECCENTRICITY":0.0001971,"INCLINATION":87.905,"RA_OF_ASC_NODE":11.0532,"ARG_OF_PERICENTER":109.1593,"MEAN_ANOMALY":250.975,"EPHEMERIS_TYPE":0,"CLASSIFICATION_TYPE":"U","NORAD_CAT_ID":48075,"ELEMENT_SET_NO":999,"REV_AT_EPOCH":22016,"BSTAR":0.00032991,"MEAN_MOTION_DOT":1.33e-6,"MEAN_MOTION_DDOT":0},{"OBJECT_NAME":"ONEWEB-0108","OBJECT_ID":"2021-025AL","EPOCH":"2025-10-04T12:00:00.196992","MEAN_MOTION":13.13467985,"ECCENTRICITY":0.0001739,"INCLINATION":87.9053,"RA_OF_ASC_NODE":11.0068,"ARG_OF_PERICENTER":94.0714,"MEAN_ANOMALY":266.0614,"EPHEMERIS_TYPE":0,"CLASSIFICATION_TYPE":"U","NORAD_CAT_ID":48076,"ELEMENT_SET_NO":999,"REV_AT_EPOCH":22008,"BSTAR":0.00028939,"MEAN_MOTION_DOT":1.18e-6,"MEAN_MOTION_DDOT":0},{"OBJECT_NAME":"ONEWEB-0169","OBJECT_ID":"2021-025AM","EPOCH":"2025-10-03T07:31:11.247168","MEAN_MOTION":13.13470733,"ECCENTRICITY":0.00018062,"INCLINATION":87.9046,"RA_OF_ASC_NODE":11.265,"ARG_OF_PERICENTER":94.4326,"MEAN_ANOMALY":265.7009,"EPHEMERIS_TYPE":0,"CLASSIFICATION_TYPE":"U","NORAD_CAT_ID":48077,"ELEMENT_SET_NO":999,"REV_AT_EPOCH":21858,"BSTAR":0.00029423581,"MEAN_MOTION_DOT":1.2e-6,"MEAN_MOTION_DDOT":0},{"OBJECT_NAME":"ONEWEB-0176","OBJECT_ID":"2021-031A","EPOCH":"2025-10-03T14:03:45.144288","MEAN_MOTION":13.14502657,"ECCENTRICITY":0.00019017,"INCLINATION":87.906,"RA_OF_ASC_NODE":340.8062,"ARG_OF_PERICENTER":103.5174,"MEAN_ANOMALY":256.6167,"EPHEMERIS_TYPE":0,"CLASSIFICATION_TYPE":"U","NORAD_CAT_ID":48210,"ELEMENT_SET_NO":999,"REV_AT_EPOCH":21460,"BSTAR":-0.00051504669,"MEAN_MOTION_DOT":-1.78e-6,"MEAN_MOTION_DDOT":0},{"OBJECT_NAME":"ONEWEB-0184","OBJECT_ID":"2021-031B","EPOCH":"2025-10-03T11:35:19.452192","MEAN_MOTION":13.14503892,"ECCENTRICITY":0.00019566,"INCLINATION":87.9073,"RA_OF_ASC_NODE":340.8006,"ARG_OF_PERICENTER":125.772,"MEAN_ANOMALY":234.3592,"EPHEMERIS_TYPE":0,"CLASSIFICATION_TYPE":"U","NORAD_CAT_ID":48211,"ELEMENT_SET_NO":999,"REV_AT_EPOCH":21456,"BSTAR":0.00083733355,"MEAN_MOTION_DOT":3.23e-6,"MEAN_MOTION_DDOT":0},{"OBJECT_NAME":"ONEWEB-0179","OBJECT_ID":"2021-031C","EPOCH":"2025-10-03T14:32:16.230624","MEAN_MOTION":13.14501846,"ECCENTRICITY":0.0002027,"INCLINATION":87.9063,"RA_OF_ASC_NODE":340.7902,"ARG_OF_PERICENTER":98.1038,"MEAN_ANOMALY":262.0322,"EPHEMERIS_TYPE":0,"CLASSIFICATION_TYPE":"U","NORAD_CAT_ID":48212,"ELEMENT_SET_NO":999,"REV_AT_EPOCH":21462,"BSTAR":-0.0006811721,"MEAN_MOTION_DOT":-2.4e-6,"MEAN_MOTION_DDOT":0},{"OBJECT_NAME":"ONEWEB-0180","OBJECT_ID":"2021-031D","EPOCH":"2025-10-03T09:50:16.147968","MEAN_MOTION":13.14502452,"ECCENTRICITY":0.00021702,"INCLINATION":87.9074,"RA_OF_ASC_NODE":340.8209,"ARG_OF_PERICENTER":103.8576,"MEAN_ANOMALY":256.2795,"EPHEMERIS_TYPE":0,"CLASSIFICATION_TYPE":"U","NORAD_CAT_ID":48213,"ELEMENT_SET_NO":999,"REV_AT_EPOCH":21448,"BSTAR":0.00073568915,"MEAN_MOTION_DOT":2.86e-6,"MEAN_MOTION_DDOT":0},{"OBJECT_NAME":"ONEWEB-0218","OBJECT_ID":"2021-031E","EPOCH":"2025-10-03T14:01:27.172992","MEAN_MOTION":13.14500725,"ECCENTRICITY":0.00022188,"INCLINATION":87.9071,"RA_OF_ASC_NODE":340.7867,"ARG_OF_PERICENTER":124.5475,"MEAN_ANOMALY":235.5864,"EPHEMERIS_TYPE":0,"CLASSIFICATION_TYPE":"U","NORAD_CAT_ID":48214,"ELEMENT_SET_NO":999,"REV_AT_EPOCH":21466,"BSTAR":-0.00032952807,"MEAN_MOTION_DOT":-1.09e-6,"MEAN_MOTION_DDOT":0},{"OBJECT_NAME":"ONEWEB-0209","OBJECT_ID":"2021-031F","EPOCH":"2025-10-03T13:45:28.473408","MEAN_MOTION":13.14500824,"ECCENTRICITY":0.00021434,"INCLINATION":87.9068,"RA_OF_ASC_NODE":340.8314,"ARG_OF_PERICENTER":98.8248,"MEAN_ANOMALY":261.3124,"EPHEMERIS_TYPE":0,"CLASSIFICATION_TYPE":"U","NORAD_CAT_ID":48215,"ELEMENT_SET_NO":999,"REV_AT_EPOCH":21466,"BSTAR":1.5972204e-5,"MEAN_MOTION_DOT":1.9e-7,"MEAN_MOTION_DDOT":0},{"OBJECT_NAME":"ONEWEB-0198","OBJECT_ID":"2021-031G","EPOCH":"2025-10-04T11:18:08.968032","MEAN_MOTION":13.14502812,"ECCENTRICITY":0.0002299,"INCLINATION":87.9057,"RA_OF_ASC_NODE":340.6521,"ARG_OF_PERICENTER":108.2937,"MEAN_ANOMALY":251.8443,"EPHEMERIS_TYPE":0,"CLASSIFICATION_TYPE":"U","NORAD_CAT_ID":48216,"ELEMENT_SET_NO":999,"REV_AT_EPOCH":21489,"BSTAR":0.00089962,"MEAN_MOTION_DOT":3.46e-6,"MEAN_MOTION_DDOT":0},{"OBJECT_NAME":"ONEWEB-0189","OBJECT_ID":"2021-031H","EPOCH":"2025-10-03T04:32:51.908352","MEAN_MOTION":13.14502687,"ECCENTRICITY":0.0002167,"INCLINATION":87.9061,"RA_OF_ASC_NODE":340.8796,"ARG_OF_PERICENTER":108.0641,"MEAN_ANOMALY":252.0725,"EPHEMERIS_TYPE":0,"CLASSIFICATION_TYPE":"U","NORAD_CAT_ID":48217,"ELEMENT_SET_NO":999,"REV_AT_EPOCH":21446,"BSTAR":0.00039882347,"MEAN_MOTION_DOT":1.61e-6,"MEAN_MOTION_DDOT":0}]
